{
  "norad_id": 48301,
  "name": "STARLINK-2537",
  "history": [
    {
      "epoch": "2026-04-12T22:32:01.786848Z",
      "apogee_km": 476.0625007274439,
      "perigee_km": 474.33134857807545,
      "latitude_deg": -3.733800662940486e-05,
      "longitude_deg": 112.61897121986287,
      "height_km": 476.1124831064358,
      "semi_major_axis_km": 6853.333924652759,
      "eccentricity": 0.0001263,
      "inclination_deg": 53.1627,
      "raan_deg": 291.7633,
      "arg_perigee_deg": 91.137,
      "mean_anomaly_deg": 268.9775,
      "mean_motion_rev_day": 15.30206077
    },
    {
      "epoch": "2026-04-14T18:25:30.823968Z",
      "apogee_km": 475.97998753063257,
      "perigee_km": 474.40920392889075,
      "latitude_deg": 9.866152083700134e-06,
      "longitude_deg": 163.94856438814875,
      "height_km": 476.0526720533714,
      "semi_major_axis_km": 6853.331595729761,
      "eccentricity": 0.0001146,
      "inclination_deg": 53.1612,
      "raan_deg": 283.2664,
      "arg_perigee_deg": 87.0587,
      "mean_anomaly_deg": 273.0545,
      "mean_motion_rev_day": 15.30206857
    },
    {
      "epoch": "2026-04-15T19:30:22.743936Z",
      "apogee_km": 476.0080079701056,
      "perigee_km": 474.4577757005727,
      "latitude_deg": 2.7674900275005647e-05,
      "longitude_deg": 141.8483027136016,
      "height_km": 476.0526507292096,
      "semi_major_axis_km": 6853.369891835338,
      "eccentricity": 0.0001131,
      "inclination_deg": 53.162,
      "raan_deg": 278.4125,
      "arg_perigee_deg": 84.1708,
      "mean_anomaly_deg": 275.9422,
      "mean_motion_rev_day": 15.30194031
    },
    {
      "epoch": "2026-04-16T19:01:10.227072Z",
      "apogee_km": 476.01087652940805,
      "perigee_km": 474.41267559483094,
      "latitude_deg": -9.421640038846714e-07,
      "longitude_deg": 143.63528447690712,
      "height_km": 475.9625484566348,
      "semi_major_axis_km": 6853.348776062119,
      "eccentricity": 0.0001166,
      "inclination_deg": 53.1611,
      "raan_deg": 273.863,
      "arg_perigee_deg": 79.3564,
      "mean_anomaly_deg": 280.7568,
      "mean_motion_rev_day": 15.30201103
    },
    {
      "epoch": "2026-04-17T20:06:00.492480Z",
      "apogee_km": 476.08097212403845,
      "perigee_km": 474.28279831493455,
      "latitude_deg": -7.270394217564363e-05,
      "longitude_deg": 121.54086833059077,
      "height_km": 476.1237887692081,
      "semi_major_axis_km": 6853.318885219486,
      "eccentricity": 0.00013119,
      "inclination_deg": 53.1609,
      "raan_deg": 269.0081,
      "arg_perigee_deg": 92.7906,
      "mean_anomaly_deg": 267.3244,
      "mean_motion_rev_day": 15.30211114
    },
    {
      "epoch": "2026-04-18T19:36:49.904064Z",
      "apogee_km": 476.16212831809753,
      "perigee_km": 474.33638621916,
      "latitude_deg": 9.81641855720758e-06,
      "longitude_deg": 123.31707400116908,
      "height_km": 476.22040803057735,
      "semi_major_axis_km": 6853.3862572686285,
      "eccentricity": 0.0001332,
      "inclination_deg": 53.1599,
      "raan_deg": 264.4558,
      "arg_perigee_deg": 94.5976,
      "mean_anomaly_deg": 265.5177,
      "mean_motion_rev_day": 15.3018855
    }
  ]
}